GSAT0101 (PRN E11)      
1 37846U 11060A   23063.10925090 -.00000090  00000+0  00000+0 0  9994
2 37846  57.0750  14.2868 0003967 354.4651   5.5123  1.70476145 70644
GSAT0102 (PRN E12)      
1 37847U 11060B   23064.50231421 -.00000086  00000+0  00000+0 0  9993
2 37847  57.0762  14.2488 0005177 333.2594 208.3579  1.70475491 70676
GSAT0103 (PRN E19)      
1 38857U 12055A   23064.90804604  .00000008  00000+0  00000+0 0  9996
2 38857  55.2159 134.5080 0004774 257.9959 102.0215  1.70473707 64703
GSAT0104 (PRN E20)      
1 38858U 12055B   23064.29117510  .00000003  00000+0  00000+0 0  9997
2 38858  55.2162 134.5262 0002610 253.2359 106.8019  1.70473832 64556
GSAT0201 (PRN E18)      
1 40128U 14050A   23064.08427771 -.00000068  00000+0  00000+0 0  9999
2 40128  50.0905 321.8893 1612125 133.4293 241.1717  1.85519494 56058
GSAT0202 (PRN E14)      
1 40129U 14050B   23063.80533521 -.00000067  00000+0  00000+0 0  9999
2 40129  50.1121 320.9679 1609570 134.2312 240.1710  1.85520156 58188
GSAT0203 (PRN E26)      
1 40544U 15017A   23062.88866487 -.00000091  00000+0  00000+0 0  9998
2 40544  56.8711  14.2905 0004233 285.0518  74.8835  1.70475832 48722
GSAT0204 (PRN E22)      
1 40545U 15017B   23064.90174133 -.00000085  00000+0  00000+0 0  9997
2 40545  56.8772  14.2495 0003385 276.1693  83.7747  1.70475637 49428
GSAT0205 (PRN E24)      
1 40889U 15045A   23062.91019052  .00000050  00000+0  00000+0 0  9997
2 40889  55.4651 254.7912 0006277  34.7130 325.3422  1.70473536 46532
GSAT0206 (PRN E30)      
1 40890U 15045B   23064.30405606  .00000049  00000+0  00000+0 0  9996
2 40890  55.4635 254.7484 0004281  33.6628 326.3726  1.70473589 46584
GSAT0209 (PRN E09)      
1 41174U 15079A   23063.30322531 -.00000005  00000+0  00000+0 0  9996
2 41174  55.2338 134.2575 0003825 302.8242  57.1989  1.70474957 44305
GSAT0208 (PRN E08)      
1 41175U 15079B   23064.10935086  .00000001  00000+0  00000+0 0  9996
2 41175  55.2323 134.2337 0003223 302.3244  57.7100  1.70474857 44732
GSAT0211 (PRN E02)      
1 41549U 16030A   23065.40289524  .00000049  00000+0  00000+0 0  9994
2 41549  55.6103 254.6788 0004091   8.6567 351.3524  1.70473636 42210
GSAT0210 (PRN E01)      
1 41550U 16030B   23063.93466614  .00000050  00000+0  00000+0 0  9991
2 41550  55.6096 254.7206 0001982 349.5997  10.4062  1.70473983 42203
GSAT0207 (PRN E07)      
1 41859U 16069A   23063.59720888 -.00000004  00000+0  00000+0 0  9993
2 41859  54.8938 134.3661 0006334 282.2426  77.7481  1.70474994 38934
GSAT0212 (PRN E03)      
1 41860U 16069B   23061.69173028 -.00000019  00000+0  00000+0 0  9998
2 41860  54.8922 134.4166 0002596 307.1437  52.8824  1.70473654 39157
GSAT0213 (PRN E04)      
1 41861U 16069C   23062.64353057 -.00000011  00000+0  00000+0 0  9999
2 41861  54.8948 134.3958 0004299 263.3594  96.6468  1.70473749 39035
GSAT0214 (PRN E05)      
1 41862U 16069D   23062.79067844 -.00000010  00000+0  00000+0 0  9991
2 41862  54.8935 134.3860 0003507 264.7147  95.3013  1.70473784 39169
GSAT0215 (PRN E21)      
1 43055U 17079A   23063.28067387  .00000050  00000+0  00000+0 0  9999
2 43055  55.5867 254.5659 0001547   1.9096 358.1035  1.70474337 32515
GSAT0216 (PRN E25)      
1 43056U 17079B   23064.15929236  .00000049  00000+0  00000+0 0  9995
2 43056  55.5867 254.5415 0002464 320.8158  39.1749  1.70474464 32516
GSAT0217 (PRN E27)      
1 43057U 17079C   23063.79302245  .00000050  00000+0  00000+0 0  9992
2 43057  55.5856 254.5508 0002991 344.3848  15.6164  1.70474373 32520
GSAT0218 (PRN E31)      
1 43058U 17079D   23064.59961845  .00000049  00000+0  00000+0 0  9997
2 43058  55.5853 254.5259 0002657 309.6097  50.3730  1.70474391 32569
GSAT0221 (PRN E15)      
1 43564U 18060A   23064.49825481 -.00000086  00000+0  00000+0 0  9996
2 43564  57.2521  14.1288 0005067 298.2544  61.6765  1.70475650 28727
GSAT0222 (PRN E33)      
1 43565U 18060B   23063.54496845 -.00000089  00000+0  00000+0 0  9993
2 43565  57.2540  14.1552 0004923 306.0616  53.8745  1.70475623 28744
GSAT0219 (PRN E36)      
1 43566U 18060C   23063.17890762 -.00000090  00000+0  00000+0 0  9991
2 43566  57.2546  14.1671 0004617 307.0271  52.9125  1.70475676 28718
GSAT0220 (PRN E13)      
1 43567U 18060D   23063.98581115 -.00000088  00000+0  00000+0 0  9997
2 43567  57.2544  14.1460 0004701 303.1966  56.7401  1.70475728 28712
GSAT0223 (PRN E34)      
1 49809U 21116A   23064.72827198 -.00000086  00000+0  00000+0 0  9993
2 49809  57.2465  14.0229 0001566 270.3053 275.4806  1.70475865  7739
GSAT0224 (PRN E10)      
1 49810U 21116B   23064.82330856 -.00000085  00000+0  00000+0 0  9995
2 49810  57.2481  14.0185 0001232 300.8340  55.7539  1.70475884  7753
